     2.11           NAVIGATION DATA     GPS(GPS)            RINEX VERSION / TYPE
cnvtToRINEX 3.14.0  convertToRINEX OPR  20220810 190643 UTC PGM / RUN BY / DATE 
----------------------------------------------------------- COMMENT             
    0.7451D-08  0.2235D-07 -0.5960D-07 -0.1192D-06          ION ALPHA           
    0.9216D+05  0.1311D+06 -0.6554D+05 -0.5243D+06          ION BETA            
   -0.931322574615D-09-0.799360577730D-14   233472     2217 DELTA-UTC: A0,A1,T,W
    18                                                      LEAP SECONDS        
                                                            END OF HEADER       
 5 22 07 03 18 00  0.0-0.877990387380D-04-0.136424205266D-11 0.000000000000D+00
    0.103000000000D+03-0.765625000000D+02 0.471483924912D-08-0.892163403833D+00
   -0.396370887756D-05 0.609106733464D-02 0.402890145779D-05 0.515374896240D+04
    0.648000000000D+05-0.186264514923D-07 0.286163429579D+01 0.176951289177D-06
    0.961690804796D+00 0.301093750000D+03 0.105150436057D+01-0.835499087605D-08
   -0.282154610015D-09 0.100000000000D+01 0.221700000000D+04 0.000000000000D+00
    0.200000000000D+01 0.000000000000D+00-0.111758708954D-07 0.103000000000D+03
    0.576180000000D+05 0.400000000000D+01 0.000000000000D+00 0.000000000000D+00
 7 22 07 03 18 00  0.0 0.320442020893D-03-0.102318153949D-11 0.000000000000D+00
    0.700000000000D+02 0.203125000000D+02 0.486663128616D-08 0.211374798959D+01
    0.791624188423D-06 0.162879534764D-01 0.713951885700D-05 0.515364745712D+04
    0.648000000000D+05-0.165775418282D-06-0.128041339763D+01-0.288709998131D-06
    0.950304720280D+00 0.237000000000D+03-0.225514918191D+01-0.806926468869D-08
    0.271082720255D-09 0.100000000000D+01 0.221700000000D+04 0.000000000000D+00
    0.200000000000D+01 0.000000000000D+00-0.111758708954D-07 0.700000000000D+02
    0.576180000000D+05 0.400000000000D+01 0.000000000000D+00 0.000000000000D+00
13 22 07 03 18 00  0.0 0.341449398547D-03 0.704858393874D-11 0.000000000000D+00
    0.790000000000D+02-0.490625000000D+02 0.401409577463D-08-0.173160019283D+01
   -0.249594449997D-05 0.607358652633D-02 0.106189399958D-04 0.515368133736D+04
    0.648000000000D+05 0.145286321640D-06-0.219733323307D+01-0.875443220139D-07
    0.968735909590D+00 0.180687500000D+03 0.914376192490D+00-0.760317384557D-08
    0.136434254463D-09 0.100000000000D+01 0.221700000000D+04 0.000000000000D+00
    0.200000000000D+01 0.000000000000D+00-0.116415321827D-07 0.790000000000D+02
    0.576180000000D+05 0.400000000000D+01 0.000000000000D+00 0.000000000000D+00
14 22 07 03 18 00  0.0-0.112018547952D-03 0.000000000000D+00 0.000000000000D+00
    0.100000000000D+02-0.112500000000D+01 0.476769859378D-08 0.142145217979D+01
   -0.130385160446D-06 0.207855622284D-02 0.729598104954D-05 0.515365616608D+04
    0.648000000000D+05-0.409781932831D-07-0.200477290021D+00 0.502914190292D-07
    0.952425143964D+00 0.234312500000D+03-0.310818538904D+01-0.807569352791D-08
   -0.336085427879D-09 0.100000000000D+01 0.221700000000D+04 0.000000000000D+00
    0.200000000000D+01 0.000000000000D+00-0.791624188423D-08 0.100000000000D+02
    0.576180000000D+05 0.400000000000D+01 0.000000000000D+00 0.000000000000D+00
20 22 07 03 18 00  0.0 0.506240408868D-03-0.318323145621D-11 0.000000000000D+00
    0.550000000000D+02-0.716875000000D+02 0.517700135717D-08-0.243011719634D+01
   -0.367686152458D-05 0.474588933866D-02 0.306963920593D-05 0.515360941696D+04
    0.648000000000D+05-0.134110450745D-06 0.274510289367D+01-0.104308128357D-06
    0.943974245116D+00 0.307656250000D+03-0.311784981501D+01-0.855464204946D-08
   -0.235366946835D-09 0.100000000000D+01 0.221700000000D+04 0.000000000000D+00
    0.200000000000D+01 0.000000000000D+00-0.838190317154D-08 0.550000000000D+02
    0.576180000000D+05 0.400000000000D+01 0.000000000000D+00 0.000000000000D+00
17 22 07 03 18 00  0.0 0.632536131889D-03 0.454747350886D-11 0.000000000000D+00
    0.510000000000D+02 0.796562500000D+02 0.400016662300D-08-0.129852665973D+01
    0.438466668129D-05 0.135248433799D-01 0.987015664577D-05 0.515358167458D+04
    0.648000000000D+05-0.214204192162D-06 0.870775259170D+00 0.242143869400D-06
    0.978460683855D+00 0.204500000000D+03-0.148952976750D+01-0.783032616451D-08
    0.153577825704D-10 0.100000000000D+01 0.221700000000D+04 0.000000000000D+00
    0.280000000000D+01 0.000000000000D+00-0.111758708954D-07 0.510000000000D+02
    0.578820000000D+05 0.400000000000D+01 0.000000000000D+00 0.000000000000D+00
30 22 07 03 18 00  0.0-0.533104408532D-03-0.909494701773D-12 0.000000000000D+00
    0.350000000000D+02 0.224062500000D+02 0.523307512144D-08 0.205264747074D+01
    0.111944973469D-05 0.592914351728D-02 0.690668821335D-05 0.515374171638D+04
    0.648000000000D+05-0.633299350739D-07-0.126934506038D+01 0.186264514923D-08
    0.935454438438D+00 0.235187500000D+03-0.266430125413D+01-0.832320383771D-08
    0.202865593023D-09 0.100000000000D+01 0.221700000000D+04 0.000000000000D+00
    0.200000000000D+01 0.000000000000D+00 0.372529029846D-08 0.350000000000D+02
    0.576180000000D+05 0.400000000000D+01 0.000000000000D+00 0.000000000000D+00
19 22 07 03 17 59 44.0 0.178901012987D-03 0.500222085975D-11 0.000000000000D+00
    0.280000000000D+02 0.695312500000D+02 0.407874132452D-08 0.984605201650D+00
    0.354461371899D-05 0.929166760761D-02 0.981427729130D-05 0.515370946312D+04
    0.647840000000D+05 0.391155481339D-07 0.915537822591D+00-0.219792127609D-06
    0.977292549620D+00 0.198531250000D+03 0.210712753041D+01-0.781353975101D-08
    0.446447167745D-10 0.100000000000D+01 0.221700000000D+04 0.000000000000D+00
    0.200000000000D+01 0.000000000000D+00-0.158324837685D-07 0.280000000000D+02
    0.617880000000D+05 0.400000000000D+01 0.000000000000D+00 0.000000000000D+00
15 22 07 03 18 00  0.0-0.483226031065D-04 0.306954461848D-11 0.000000000000D+00
    0.710000000000D+02-0.738437500000D+02 0.484234456023D-08-0.227239580842D+01
   -0.376813113689D-05 0.141964398790D-01 0.954046845436D-05 0.515358573532D+04
    0.648000000000D+05 0.150874257088D-06-0.246208360216D+01-0.912696123123D-07
    0.930642644865D+00 0.177156250000D+03 0.109957179344D+01-0.789497171440D-08
    0.116433421348D-09 0.100000000000D+01 0.221700000000D+04 0.000000000000D+00
    0.200000000000D+01 0.000000000000D+00-0.107102096081D-07 0.710000000000D+02
    0.623580000000D+05 0.400000000000D+01 0.000000000000D+00 0.000000000000D+00
